CCSDS_OMM_VERS = 2.0
CREATION_DATE  = 
ORIGINATOR     = 

OBJECT_NAME    = STARLINK-36560
OBJECT_ID      = 2026-016AA
CENTER_NAME    = EARTH
REF_FRAME      = TEME
TIME_SYSTEM    = UTC
MEAN_ELEMENT_THEORY = SGP/SGP4

EPOCH          = 2026-01-30T18:00:02.000160
MEAN_MOTION    = 16.05533266
ECCENTRICITY   = .00011677
INCLINATION    = 97.2817
RA_OF_ASC_NODE = 89.1075
ARG_OF_PERICENTER = 73.9835
MEAN_ANOMALY   = 300.8972

EPHEMERIS_TYPE = 0
CLASSIFICATION_TYPE = U
NORAD_CAT_ID   = 67585
ELEMENT_SET_NO = 999
REV_AT_EPOCH   = 189
BSTAR          = -.20096759E-2
MEAN_MOTION_DOT = -.139913E-1
MEAN_MOTION_DDOT = .65104164E-3

CCSDS_OMM_VERS = 2.0
CREATION_DATE  = 
ORIGINATOR     = 

OBJECT_NAME    = CZ-2C DEB
OBJECT_ID      = 2026-009C
CENTER_NAME    = EARTH
REF_FRAME      = TEME
TIME_SYSTEM    = UTC
MEAN_ELEMENT_THEORY = SGP/SGP4

EPOCH          = 2026-01-31T04:26:38.775264
MEAN_MOTION    = 15.10996163
ECCENTRICITY   = .0113083
INCLINATION    = 97.2291
RA_OF_ASC_NODE = 105.1256
ARG_OF_PERICENTER = 166.6799
MEAN_ANOMALY   = 193.7461

EPHEMERIS_TYPE = 0
CLASSIFICATION_TYPE = U
NORAD_CAT_ID   = 67586
ELEMENT_SET_NO = 999
REV_AT_EPOCH   = 241
BSTAR          = .25823E-2
MEAN_MOTION_DOT = .50505E-3
MEAN_MOTION_DDOT = 0

CCSDS_OMM_VERS = 2.0
CREATION_DATE  = 
ORIGINATOR     = 

OBJECT_NAME    = CZ-2C DEB
OBJECT_ID      = 2026-009D
CENTER_NAME    = EARTH
REF_FRAME      = TEME
TIME_SYSTEM    = UTC
MEAN_ELEMENT_THEORY = SGP/SGP4

EPOCH          = 2026-01-31T03:58:09.028992
MEAN_MOTION    = 15.12666182
ECCENTRICITY   = .0109422
INCLINATION    = 97.6748
RA_OF_ASC_NODE = 105.9553
ARG_OF_PERICENTER = 172.1076
MEAN_ANOMALY   = 188.1909

EPHEMERIS_TYPE = 0
CLASSIFICATION_TYPE = U
NORAD_CAT_ID   = 67587
ELEMENT_SET_NO = 999
REV_AT_EPOCH   = 241
BSTAR          = .18298E-2
MEAN_MOTION_DOT = .37144E-3
MEAN_MOTION_DDOT = 0

CCSDS_OMM_VERS = 2.0
CREATION_DATE  = 
ORIGINATOR     = 

OBJECT_NAME    = NAVSTAR 85 (USA 581)
OBJECT_ID      = 2026-017A
CENTER_NAME    = EARTH
REF_FRAME      = TEME
TIME_SYSTEM    = UTC
MEAN_ELEMENT_THEORY = SGP/SGP4

EPOCH          = 2026-01-28T18:17:22.544736
MEAN_MOTION    = 4.03376750
ECCENTRICITY   = .59408377
INCLINATION    = 55.0007
RA_OF_ASC_NODE = 99.1396
ARG_OF_PERICENTER = 270.1415
MEAN_ANOMALY   = 26.1406

EPHEMERIS_TYPE = 0
CLASSIFICATION_TYPE = U
NORAD_CAT_ID   = 67588
ELEMENT_SET_NO = 999
REV_AT_EPOCH   = 4
BSTAR          = .32093292E-3
MEAN_MOTION_DOT = .346E-5
MEAN_MOTION_DDOT = 0

CCSDS_OMM_VERS = 2.0
CREATION_DATE  = 
ORIGINATOR     = 

OBJECT_NAME    = NEONSAT-1A
OBJECT_ID      = 2026-019A
CENTER_NAME    = EARTH
REF_FRAME      = TEME
TIME_SYSTEM    = UTC
MEAN_ELEMENT_THEORY = SGP/SGP4

EPOCH          = 2026-01-30T14:47:19.226400
MEAN_MOTION    = 15.07484359
ECCENTRICITY   = .00122714
INCLINATION    = 97.4094
RA_OF_ASC_NODE = 155.5697
ARG_OF_PERICENTER = 308.6126
MEAN_ANOMALY   = 51.4003

EPHEMERIS_TYPE = 0
CLASSIFICATION_TYPE = U
NORAD_CAT_ID   = 67614
ELEMENT_SET_NO = 999
REV_AT_EPOCH   = 8
BSTAR          = .1169085E-3
MEAN_MOTION_DOT = .1715E-4
MEAN_MOTION_DDOT = 0

CCSDS_OMM_VERS = 2.0
CREATION_DATE  = 
ORIGINATOR     = 

OBJECT_NAME    = ELECTRON R/B
OBJECT_ID      = 2026-019B
CENTER_NAME    = EARTH
REF_FRAME      = TEME
TIME_SYSTEM    = UTC
MEAN_ELEMENT_THEORY = SGP/SGP4

EPOCH          = 2026-01-30T14:18:55.008000
MEAN_MOTION    = 15.66134198
ECCENTRICITY   = .02751747
INCLINATION    = 97.4431
RA_OF_ASC_NODE = 155.6469
ARG_OF_PERICENTER = 223.6059
MEAN_ANOMALY   = 134.3162

EPHEMERIS_TYPE = 0
CLASSIFICATION_TYPE = U
NORAD_CAT_ID   = 67615
ELEMENT_SET_NO = 999
REV_AT_EPOCH   = 8
BSTAR          = .24259204E-3
MEAN_MOTION_DOT = .246482E-2
MEAN_MOTION_DDOT = .2280388E-5

CCSDS_OMM_VERS = 2.0
CREATION_DATE  = 
ORIGINATOR     = 

OBJECT_NAME    = ELECTRON KICK STAGE R/B
OBJECT_ID      = 2026-019C
CENTER_NAME    = EARTH
REF_FRAME      = TEME
TIME_SYSTEM    = UTC
MEAN_ELEMENT_THEORY = SGP/SGP4

EPOCH          = 2026-01-30T14:24:53.138592
MEAN_MOTION    = 15.53271469
ECCENTRICITY   = .02094286
INCLINATION    = 97.4077
RA_OF_ASC_NODE = 155.5815
ARG_OF_PERICENTER = 260.1906
MEAN_ANOMALY   = 97.5645

EPHEMERIS_TYPE = 0
CLASSIFICATION_TYPE = U
NORAD_CAT_ID   = 67616
ELEMENT_SET_NO = 999
REV_AT_EPOCH   = 8
BSTAR          = .2219499E-3
MEAN_MOTION_DOT = .36737E-3
MEAN_MOTION_DDOT = .2561079E-5

